SNAP-3 JIMI             
1 40975U 15058M   26073.62805580  .00007652  00000+0  53990-3 0  9994
2 40975  64.7659 158.7040 0105267  94.3555 266.9598 15.01209828100025
PROPCUBE 1 (FLORA)      
1 40976U 15058N   26073.62672588  .00004463  00000+0  42282-3 0  9994
2 40976  64.7735 228.1771 0129880  98.1807 263.4059 14.88683312102184
SINOD-D 3               
1 40977U 15058P   26073.56729379  .00006347  00000+0  54112-3 0  9997
2 40977  64.7720 211.1130 0118293  96.1244 265.3362 14.93271989100623
HORYU-4                 
1 41340U 16012D   26073.57392746  .00121667  00000+0  12267-2 0  9995
2 41340  30.9920  33.8282 0003998 201.4323 158.6163 15.63882335555871
RAVAN                   
1 41849U 16067B   26073.62604178  .00056027  00000+0  11197-2 0  9998
2 41849  98.0040 312.8526 0005628 348.9077  11.2046 15.46606319513043
CELTEE 1                
1 41850U 16067C   26073.55827605  .00008947  00000+0  43518-3 0  9995
2 41850  98.0817 293.6643 0001273 132.2329 227.9012 15.18666849511511
OPTICUBE 04             
1 41851U 16067D   26073.54894861  .00003008  00000+0  19301-3 0  9999
2 41851  98.0808 280.8587 0017129  78.9030 281.4122 15.09221766510891
AEROCUBE 8D             
1 41852U 16067E   26073.59007665  .00011461  00000+0  49062-3 0  9992
2 41852  98.0830 296.5878 0004877  99.0969 261.0818 15.22975706511662
AEROCUBE 8C             
1 41853U 16067F   26073.56403172  .00012104  00000+0  51441-3 0  9992
2 41853  98.0701 293.9124 0006171  39.4979 320.6705 15.23201419511653
CORVUS BC2              
1 42846U 17042X   26073.51253006  .00004423  00000+0  30969-3 0  9990
2 42846  97.3957 238.6383 0014857  78.4061 281.8833 15.05651050472813
CORVUS BC1              
1 42847U 17042Y   26073.51839638  .00004545  00000+0  31647-3 0  9991
2 42847  97.3990 239.3930 0013386  57.6410 302.6111 15.05859941472843
MAKERSAT 0              
1 43016U 17073D   26073.61401780  .00030959  00000+0  92886-3 0  9998
2 43016  97.4784 315.6101 0114797 248.2036 110.6958 15.28049676452005
SIRION PATHFINDER-2     
1 43759U 18099B   26073.54380758  .00007715  00000+0  43289-3 0  9991
2 43759  97.4388 124.8561 0007312 266.0289  94.0107 15.13606938398308
CORVUS BC4              
1 43767U 18099K   26073.55766907  .00006231  00000+0  36965-3 0  9990
2 43767  97.4200 119.3029 0007552 338.3269  21.7641 15.11671658398102
M2 PATHFINDER           
1 45727U 20037E   26073.46885488  .00003997  00000+0  29169-3 0  9993
2 45727  97.8173 263.6424 0012715 111.8208 248.4371 15.04219431311257
NETSAT-4                
1 46504U 20068U   26073.52757067  .00026438  00000+0  65045-3 0  9997
2 46504  97.8640  74.3919 0003863 314.9198  45.1733 15.40595765301186
