[{"OBJECT_NAME":"SNAP-3 JIMI","OBJECT_ID":"2015-058M","EPOCH":"2026-03-14T15:04:24.021120","MEAN_MOTION":15.01209828,"ECCENTRICITY":0.01052675,"INCLINATION":64.7659,"RA_OF_ASC_NODE":158.704,"ARG_OF_PERICENTER":94.3555,"MEAN_ANOMALY":266.9598,"EPHEMERIS_TYPE":0,"CLASSIFICATION_TYPE":"U","NORAD_CAT_ID":40975,"ELEMENT_SET_NO":999,"REV_AT_EPOCH":10002,"BSTAR":0.00053989971,"MEAN_MOTION_DOT":7.652e-5,"MEAN_MOTION_DDOT":0},{"OBJECT_NAME":"PROPCUBE 1 (FLORA)","OBJECT_ID":"2015-058N","EPOCH":"2026-03-14T15:02:29.116032","MEAN_MOTION":14.88683312,"ECCENTRICITY":0.01298808,"INCLINATION":64.7735,"RA_OF_ASC_NODE":228.1771,"ARG_OF_PERICENTER":98.1807,"MEAN_ANOMALY":263.4059,"EPHEMERIS_TYPE":0,"CLASSIFICATION_TYPE":"U","NORAD_CAT_ID":40976,"ELEMENT_SET_NO":999,"REV_AT_EPOCH":10218,"BSTAR":0.00042282495,"MEAN_MOTION_DOT":4.463e-5,"MEAN_MOTION_DDOT":0},{"OBJECT_NAME":"SINOD-D 3","OBJECT_ID":"2015-058P","EPOCH":"2026-03-14T13:36:54.183456","MEAN_MOTION":14.93271989,"ECCENTRICITY":0.01182938,"INCLINATION":64.772,"RA_OF_ASC_NODE":211.113,"ARG_OF_PERICENTER":96.1244,"MEAN_ANOMALY":265.3362,"EPHEMERIS_TYPE":0,"CLASSIFICATION_TYPE":"U","NORAD_CAT_ID":40977,"ELEMENT_SET_NO":999,"REV_AT_EPOCH":10062,"BSTAR":0.00054111857,"MEAN_MOTION_DOT":6.347e-5,"MEAN_MOTION_DDOT":0},{"OBJECT_NAME":"HORYU-4","OBJECT_ID":"2016-012D","EPOCH":"2026-03-14T13:46:27.332544","MEAN_MOTION":15.63882335,"ECCENTRICITY":0.00039981,"INCLINATION":30.992,"RA_OF_ASC_NODE":33.8282,"ARG_OF_PERICENTER":201.4323,"MEAN_ANOMALY":158.6163,"EPHEMERIS_TYPE":0,"CLASSIFICATION_TYPE":"U","NORAD_CAT_ID":41340,"ELEMENT_SET_NO":999,"REV_AT_EPOCH":55587,"BSTAR":0.0012267309,"MEAN_MOTION_DOT":0.00121667,"MEAN_MOTION_DDOT":0},{"OBJECT_NAME":"RAVAN","OBJECT_ID":"2016-067B","EPOCH":"2026-03-14T15:01:30.009792","MEAN_MOTION":15.46606319,"ECCENTRICITY":0.00056284,"INCLINATION":98.004,"RA_OF_ASC_NODE":312.8526,"ARG_OF_PERICENTER":348.9077,"MEAN_ANOMALY":11.2046,"EPHEMERIS_TYPE":0,"CLASSIFICATION_TYPE":"U","NORAD_CAT_ID":41849,"ELEMENT_SET_NO":999,"REV_AT_EPOCH":51304,"BSTAR":0.0011197491,"MEAN_MOTION_DOT":0.00056027,"MEAN_MOTION_DDOT":0},{"OBJECT_NAME":"CELTEE 1","OBJECT_ID":"2016-067C","EPOCH":"2026-03-14T13:23:55.050720","MEAN_MOTION":15.18666849,"ECCENTRICITY":0.00012739,"INCLINATION":98.0817,"RA_OF_ASC_NODE":293.6643,"ARG_OF_PERICENTER":132.2329,"MEAN_ANOMALY":227.9012,"EPHEMERIS_TYPE":0,"CLASSIFICATION_TYPE":"U","NORAD_CAT_ID":41850,"ELEMENT_SET_NO":999,"REV_AT_EPOCH":51151,"BSTAR":0.00043518101,"MEAN_MOTION_DOT":8.947e-5,"MEAN_MOTION_DDOT":0},{"OBJECT_NAME":"OPTICUBE 04","OBJECT_ID":"2016-067D","EPOCH":"2026-03-14T13:10:29.159904","MEAN_MOTION":15.09221766,"ECCENTRICITY":0.00171292,"INCLINATION":98.0808,"RA_OF_ASC_NODE":280.8587,"ARG_OF_PERICENTER":78.903,"MEAN_ANOMALY":281.4122,"EPHEMERIS_TYPE":0,"CLASSIFICATION_TYPE":"U","NORAD_CAT_ID":41851,"ELEMENT_SET_NO":999,"REV_AT_EPOCH":51089,"BSTAR":0.00019301344,"MEAN_MOTION_DOT":3.008e-5,"MEAN_MOTION_DDOT":0},{"OBJECT_NAME":"AEROCUBE 8D","OBJECT_ID":"2016-067E","EPOCH":"2026-03-14T14:09:42.622560","MEAN_MOTION":15.22975706,"ECCENTRICITY":0.00048771,"INCLINATION":98.083,"RA_OF_ASC_NODE":296.5878,"ARG_OF_PERICENTER":99.0969,"MEAN_ANOMALY":261.0818,"EPHEMERIS_TYPE":0,"CLASSIFICATION_TYPE":"U","NORAD_CAT_ID":41852,"ELEMENT_SET_NO":999,"REV_AT_EPOCH":51166,"BSTAR":0.00049062454,"MEAN_MOTION_DOT":0.00011461,"MEAN_MOTION_DDOT":0},{"OBJECT_NAME":"AEROCUBE 8C","OBJECT_ID":"2016-067F","EPOCH":"2026-03-14T13:32:12.340608","MEAN_MOTION":15.23201419,"ECCENTRICITY":0.00061713,"INCLINATION":98.0701,"RA_OF_ASC_NODE":293.9124,"ARG_OF_PERICENTER":39.4979,"MEAN_ANOMALY":320.6705,"EPHEMERIS_TYPE":0,"CLASSIFICATION_TYPE":"U","NORAD_CAT_ID":41853,"ELEMENT_SET_NO":999,"REV_AT_EPOCH":51165,"BSTAR":0.00051440782,"MEAN_MOTION_DOT":0.00012104,"MEAN_MOTION_DDOT":0},{"OBJECT_NAME":"CORVUS BC2","OBJECT_ID":"2017-042X","EPOCH":"2026-03-14T12:18:02.597184","MEAN_MOTION":15.0565105,"ECCENTRICITY":0.00148577,"INCLINATION":97.3957,"RA_OF_ASC_NODE":238.6383,"ARG_OF_PERICENTER":78.4061,"MEAN_ANOMALY":281.8833,"EPHEMERIS_TYPE":0,"CLASSIFICATION_TYPE":"U","NORAD_CAT_ID":42846,"ELEMENT_SET_NO":999,"REV_AT_EPOCH":47281,"BSTAR":0.00030968776,"MEAN_MOTION_DOT":4.423e-5,"MEAN_MOTION_DDOT":0},{"OBJECT_NAME":"CORVUS BC1","OBJECT_ID":"2017-042Y","EPOCH":"2026-03-14T12:26:29.447232","MEAN_MOTION":15.05859941,"ECCENTRICITY":0.00133869,"INCLINATION":97.399,"RA_OF_ASC_NODE":239.393,"ARG_OF_PERICENTER":57.641,"MEAN_ANOMALY":302.6111,"EPHEMERIS_TYPE":0,"CLASSIFICATION_TYPE":"U","NORAD_CAT_ID":42847,"ELEMENT_SET_NO":999,"REV_AT_EPOCH":47284,"BSTAR":0.00031647235,"MEAN_MOTION_DOT":4.545e-5,"MEAN_MOTION_DDOT":0},{"OBJECT_NAME":"MAKERSAT 0","OBJECT_ID":"2017-073D","EPOCH":"2026-03-14T14:44:11.137920","MEAN_MOTION":15.28049676,"ECCENTRICITY":0.01147971,"INCLINATION":97.4784,"RA_OF_ASC_NODE":315.6101,"ARG_OF_PERICENTER":248.2036,"MEAN_ANOMALY":110.6958,"EPHEMERIS_TYPE":0,"CLASSIFICATION_TYPE":"U","NORAD_CAT_ID":43016,"ELEMENT_SET_NO":999,"REV_AT_EPOCH":45200,"BSTAR":0.00092886455,"MEAN_MOTION_DOT":0.00030959,"MEAN_MOTION_DDOT":0},{"OBJECT_NAME":"SIRION PATHFINDER-2","OBJECT_ID":"2018-099B","EPOCH":"2026-03-14T13:03:04.974912","MEAN_MOTION":15.13606938,"ECCENTRICITY":0.00073125,"INCLINATION":97.4388,"RA_OF_ASC_NODE":124.8561,"ARG_OF_PERICENTER":266.0289,"MEAN_ANOMALY":94.0107,"EPHEMERIS_TYPE":0,"CLASSIFICATION_TYPE":"U","NORAD_CAT_ID":43759,"ELEMENT_SET_NO":999,"REV_AT_EPOCH":39830,"BSTAR":0.00043288807,"MEAN_MOTION_DOT":7.715e-5,"MEAN_MOTION_DDOT":0},{"OBJECT_NAME":"CORVUS BC4","OBJECT_ID":"2018-099K","EPOCH":"2026-03-14T13:23:02.607648","MEAN_MOTION":15.11671658,"ECCENTRICITY":0.00075522,"INCLINATION":97.42,"RA_OF_ASC_NODE":119.3029,"ARG_OF_PERICENTER":338.3269,"MEAN_ANOMALY":21.7641,"EPHEMERIS_TYPE":0,"CLASSIFICATION_TYPE":"U","NORAD_CAT_ID":43767,"ELEMENT_SET_NO":999,"REV_AT_EPOCH":39810,"BSTAR":0.00036964547,"MEAN_MOTION_DOT":6.231e-5,"MEAN_MOTION_DDOT":0},{"OBJECT_NAME":"M2 PATHFINDER","OBJECT_ID":"2020-037E","EPOCH":"2026-03-14T11:15:09.061632","MEAN_MOTION":15.04219431,"ECCENTRICITY":0.00127155,"INCLINATION":97.8173,"RA_OF_ASC_NODE":263.6424,"ARG_OF_PERICENTER":111.8208,"MEAN_ANOMALY":248.4371,"EPHEMERIS_TYPE":0,"CLASSIFICATION_TYPE":"U","NORAD_CAT_ID":45727,"ELEMENT_SET_NO":999,"REV_AT_EPOCH":31125,"BSTAR":0.00029169482,"MEAN_MOTION_DOT":3.997e-5,"MEAN_MOTION_DDOT":0},{"OBJECT_NAME":"NETSAT-4","OBJECT_ID":"2020-068U","EPOCH":"2026-03-14T12:39:42.105888","MEAN_MOTION":15.40595765,"ECCENTRICITY":0.00038633,"INCLINATION":97.864,"RA_OF_ASC_NODE":74.3919,"ARG_OF_PERICENTER":314.9198,"MEAN_ANOMALY":45.1733,"EPHEMERIS_TYPE":0,"CLASSIFICATION_TYPE":"U","NORAD_CAT_ID":46504,"ELEMENT_SET_NO":999,"REV_AT_EPOCH":30118,"BSTAR":0.00065045115,"MEAN_MOTION_DOT":0.00026438,"MEAN_MOTION_DDOT":0}]
